{
  "type": "FeatureCollection",
  "features": [
    {
      "type": "Feature",
      "properties": {
        "norad_id": 38867,
        "name": "INTELSAT 23 (IS-23)",
        "group": "intelsat",
        "lat": -0.03380001069936168,
        "lon": 3.3501628573072333,
        "alt_km": 35792.51734274671,
        "timestamp": "2025-12-07T22:37:42.750777+00:00",
        "meta_object_name": "INTELSAT 23 (IS-23)",
        "meta_object_id": "2012-057A",
        "meta_epoch": "2025-12-06T11:42:00.871776",
        "meta_mean_motion": 1.00267666,
        "meta_eccentricity": 0.00016876,
        "meta_inclination": 0.0474,
        "meta_ra_of_asc_node": 98.6565,
        "meta_arg_of_pericenter": 128.5865,
        "meta_mean_anomaly": 330.7637,
        "meta_ephemeris_type": 0,
        "meta_classification_type": "U",
        "meta_norad_cat_id": 38867,
        "meta_element_set_no": 999,
        "meta_rev_at_epoch": 4802,
        "meta_bstar": 0,
        "meta_mean_motion_dot": -2.78e-06,
        "meta_mean_motion_ddot": 0,
        "tle_line1": "1 38867U 12057A   25340.48751009 -.00000278  00000+0  00000+0 0  9991",
        "tle_line2": "2 38867   0.0474  98.6565 0001687 128.5865 330.7637  1.00267666 48022"
      },
      "geometry": {
        "type": "Point",
        "coordinates": [
          3.3501628573072333,
          -0.03380001069936168
        ]
      }
    },
    {
      "type": "Feature",
      "properties": {
        "norad_id": 39360,
        "name": "FM-6",
        "group": "intelsat",
        "lat": -0.0001260945266688799,
        "lon": -59.7460546951098,
        "alt_km": 35794.66506742439,
        "timestamp": "2025-12-07T22:37:42.750789+00:00",
        "meta_object_name": "FM-6",
        "meta_object_id": "2013-058A",
        "meta_epoch": "2025-12-07T01:30:10.601280",
        "meta_mean_motion": 1.00268695,
        "meta_eccentricity": 0.00031192,
        "meta_inclination": 0.0099,
        "meta_ra_of_asc_node": 99.8238,
        "meta_arg_of_pericenter": 74.0345,
        "meta_mean_anomaly": 168.6312,
        "meta_ephemeris_type": 0,
        "meta_classification_type": "U",
        "meta_norad_cat_id": 39360,
        "meta_element_set_no": 999,
        "meta_rev_at_epoch": 4414,
        "meta_bstar": 0,
        "meta_mean_motion_dot": -1.1e-07,
        "meta_mean_motion_ddot": 0,
        "tle_line1": "1 39360U 13058A   25341.06262270 -.00000011  00000+0  00000+0 0  9999",
        "tle_line2": "2 39360   0.0099  99.8238 0003119  74.0345 168.6312  1.00268695 44144"
      },
      "geometry": {
        "type": "Point",
        "coordinates": [
          -59.7460546951098,
          -0.0001260945266688799
        ]
      }
    },
    {
      "type": "Feature",
      "properties": {
        "norad_id": 40271,
        "name": "INTELSAT 30 (IS-30)",
        "group": "intelsat",
        "lat": -0.021899121367005843,
        "lon": -38.69180741805444,
        "alt_km": 35788.94737576805,
        "timestamp": "2025-12-07T22:37:42.750801+00:00",
        "meta_object_name": "INTELSAT 30 (IS-30)",
        "meta_object_id": "2014-062A",
        "meta_epoch": "2025-12-07T07:23:22.684416",
        "meta_mean_motion": 1.00269737,
        "meta_eccentricity": 0.00011563,
        "meta_inclination": 0.0141,
        "meta_ra_of_asc_node": 18.2211,
        "meta_arg_of_pericenter": 60.6068,
        "meta_mean_anomaly": 13.2937,
        "meta_ephemeris_type": 0,
        "meta_classification_type": "U",
        "meta_norad_cat_id": 40271,
        "meta_element_set_no": 999,
        "meta_rev_at_epoch": 486,
        "meta_bstar": 0,
        "meta_mean_motion_dot": -1.46e-06,
        "meta_mean_motion_ddot": 0,
        "tle_line1": "1 40271U 14062A   25341.30790144 -.00000146  00000+0  00000+0 0  9990",
        "tle_line2": "2 40271   0.0141  18.2211 0001156  60.6068  13.2937  1.00269737  4864"
      },
      "geometry": {
        "type": "Point",
        "coordinates": [
          -38.69180741805444,
          -0.021899121367005843
        ]
      }
    },
    {
      "type": "Feature",
      "properties": {
        "norad_id": 40333,
        "name": "DIRECTV 14",
        "group": "intelsat",
        "lat": -0.016090153280143554,
        "lon": -42.84035964328113,
        "alt_km": 35786.40275079159,
        "timestamp": "2025-12-07T22:37:42.750813+00:00",
        "meta_object_name": "DIRECTV 14",
        "meta_object_id": "2014-078B",
        "meta_epoch": "2025-12-07T07:20:22.739136",
        "meta_mean_motion": 1.00270193,
        "meta_eccentricity": 3.122e-05,
        "meta_inclination": 0.0179,
        "meta_ra_of_asc_node": 340.3024,
        "meta_arg_of_pericenter": 252.883,
        "meta_mean_anomaly": 214.0195,
        "meta_ephemeris_type": 0,
        "meta_classification_type": "U",
        "meta_norad_cat_id": 40333,
        "meta_element_set_no": 999,
        "meta_rev_at_epoch": 4012,
        "meta_bstar": 0,
        "meta_mean_motion_dot": -1.21e-06,
        "meta_mean_motion_ddot": 0,
        "tle_line1": "1 40333U 14078B   25341.30581874 -.00000121  00000+0  00000+0 0  9997",
        "tle_line2": "2 40333   0.0179 340.3024 0000312 252.8830 214.0195  1.00270193 40124"
      },
      "geometry": {
        "type": "Point",
        "coordinates": [
          -42.84035964328113,
          -0.016090153280143554
        ]
      }
    },
    {
      "type": "Feature",
      "properties": {
        "norad_id": 40663,
        "name": "DIRECTV 15",
        "group": "intelsat",
        "lat": -0.03689416096738158,
        "lon": -46.4789812424196,
        "alt_km": 35786.30309187414,
        "timestamp": "2025-12-07T22:37:42.750825+00:00",
        "meta_object_name": "DIRECTV 15",
        "meta_object_id": "2015-026A",
        "meta_epoch": "2025-12-06T21:44:10.308768",
        "meta_mean_motion": 1.00270123,
        "meta_eccentricity": 4.561e-05,
        "meta_inclination": 0.0385,
        "meta_ra_of_asc_node": 80.1364,
        "meta_arg_of_pericenter": 150.8974,
        "meta_mean_anomaly": 68.0869,
        "meta_ephemeris_type": 0,
        "meta_classification_type": "U",
        "meta_norad_cat_id": 40663,
        "meta_element_set_no": 999,
        "meta_rev_at_epoch": 3853,
        "meta_bstar": 0,
        "meta_mean_motion_dot": -9.7e-07,
        "meta_mean_motion_ddot": 0,
        "tle_line1": "1 40663U 15026A   25340.90567487 -.00000097  00000+0  00000+0 0  9998",
        "tle_line2": "2 40663   0.0385  80.1364 0000456 150.8974  68.0869  1.00270123 38530"
      },
      "geometry": {
        "type": "Point",
        "coordinates": [
          -46.4789812424196,
          -0.03689416096738158
        ]
      }
    },
    {
      "type": "Feature",
      "properties": {
        "norad_id": 40664,
        "name": "SKY MEXICO-1",
        "group": "intelsat",
        "lat": -0.01722923163695447,
        "lon": -22.356128339754175,
        "alt_km": 35781.65812883699,
        "timestamp": "2025-12-07T22:37:42.750837+00:00",
        "meta_object_name": "SKY MEXICO-1",
        "meta_object_id": "2015-026B",
        "meta_epoch": "2025-12-07T06:24:41.475744",
        "meta_mean_motion": 1.002711,
        "meta_eccentricity": 0.00027926,
        "meta_inclination": 0.0165,
        "meta_ra_of_asc_node": 41.3375,
        "meta_arg_of_pericenter": 229.6948,
        "meta_mean_anomaly": 182.6689,
        "meta_ephemeris_type": 0,
        "meta_classification_type": "U",
        "meta_norad_cat_id": 40664,
        "meta_element_set_no": 999,
        "meta_rev_at_epoch": 3853,
        "meta_bstar": 0,
        "meta_mean_motion_dot": -2.3e-06,
        "meta_mean_motion_ddot": 0,
        "tle_line1": "1 40664U 15026B   25341.26714671 -.00000230  00000+0  00000+0 0  9997",
        "tle_line2": "2 40664   0.0165  41.3375 0002792 229.6948 182.6689  1.00271100 38538"
      },
      "geometry": {
        "type": "Point",
        "coordinates": [
          -22.356128339754175,
          -0.01722923163695447
        ]
      }
    },
    {
      "type": "Feature",
      "properties": {
        "norad_id": 40874,
        "name": "INTELSAT 34 (IS-34)",
        "group": "intelsat",
        "lat": 0.01843913547757929,
        "lon": 0.8711209310468683,
        "alt_km": 35788.67336112374,
        "timestamp": "2025-12-07T22:37:42.750849+00:00",
        "meta_object_name": "INTELSAT 34 (IS-34)",
        "meta_object_id": "2015-039A",
        "meta_epoch": "2025-12-07T04:41:25.219392",
        "meta_mean_motion": 1.00268225,
        "meta_eccentricity": 3.61e-05,
        "meta_inclination": 0.011,
        "meta_ra_of_asc_node": 311.1439,
        "meta_arg_of_pericenter": 225.1302,
        "meta_mean_anomaly": 274.8039,
        "meta_ephemeris_type": 0,
        "meta_classification_type": "U",
        "meta_norad_cat_id": 40874,
        "meta_element_set_no": 999,
        "meta_rev_at_epoch": 3770,
        "meta_bstar": 0,
        "meta_mean_motion_dot": -2.81e-06,
        "meta_mean_motion_ddot": 0,
        "tle_line1": "1 40874U 15039A   25341.19543078 -.00000281  00000+0  00000+0 0  9993",
        "tle_line2": "2 40874   0.0110 311.1439 0000361 225.1302 274.8039  1.00268225 37700"
      },
      "geometry": {
        "type": "Point",
        "coordinates": [
          0.8711209310468683,
          0.01843913547757929
        ]
      }
    }
  ]
}